{"type": "FeatureCollection", "features": [ {"type": "Feature", "properties": {"norad_id": 34375, "name": "IRIDIUM 33 DEB", "group": "iridium-33-debris", "lat": -5.32826251856149, "lon": -175.08077524653513, "alt_km": 901.0842511910005, "timestamp": "2025-12-06T09:34:17.299350+00:00", "meta": {"OBJECT_NAME": "IRIDIUM 33 DEB", "OBJECT_ID": "1997-051FT", "EPOCH": "2025-12-05T15:16:24.636000", "MEAN_MOTION": 14.17972992, "ECCENTRICITY": 0.01027304, "INCLINATION": 86.433, "RA_OF_ASC_NODE": 185.5598, "ARG_OF_PERICENTER": 149.095, "MEAN_ANOMALY": 276.7622, "EPHEMERIS_TYPE": 0, "CLASSIFICATION_TYPE": "U", "NORAD_CAT_ID": 34375, "ELEMENT_SET_NO": 999, "REV_AT_EPOCH": 86611, "BSTAR": 0.00068728218, "MEAN_MOTION_DOT": 1.5e-05, "MEAN_MOTION_DDOT": 0}, "tle": {"line1": "1 34375U 97051FT  25339.63639625  .00001500  00000+0  68728-3 0  9995", "line2": "2 34375  86.4330 185.5598 0102730 149.0950 276.7622 14.17972992866115"}}, "geometry": {"type": "Point", "coordinates": [-175.08077524653513, -5.32826251856149]}}, {"type": "Feature", "properties": {"norad_id": 34376, "name": "IRIDIUM 33 DEB", "group": "iridium-33-debris", "lat": 72.33217295358838, "lon": 21.11802065597931, "alt_km": 686.4377583661944, "timestamp": "2025-12-06T09:34:17.299360+00:00", "meta": {"OBJECT_NAME": "IRIDIUM 33 DEB", "OBJECT_ID": "1997-051FU", "EPOCH": "2025-12-05T20:06:04.766688", "MEAN_MOTION": 14.62418886, "ECCENTRICITY": 0.00263993, "INCLINATION": 86.2983, "RA_OF_ASC_NODE": 9.6431, "ARG_OF_PERICENTER": 190.1078, "MEAN_ANOMALY": 169.9606, "EPHEMERIS_TYPE": 0, "CLASSIFICATION_TYPE": "U", "NORAD_CAT_ID": 34376, "ELEMENT_SET_NO": 999, "REV_AT_EPOCH": 87906, "BSTAR": 0.0025581843, "MEAN_MOTION_DOT": 0.0001304, "MEAN_MOTION_DDOT": 0}, "tle": {"line1": "1 34376U 97051FU  25339.83755517  .00013040  00000+0  25582-2 0  9999", "line2": "2 34376  86.2983   9.6431 0026399 190.1078 169.9606 14.62418886879064"}}, "geometry": {"type": "Point", "coordinates": [21.11802065597931, 72.33217295358838]}}, {"type": "Feature", "properties": {"norad_id": 34486, "name": "IRIDIUM 33 DEB", "group": "iridium-33-debris", "lat": -75.39358664699104, "lon": -151.04072920644478, "alt_km": 593.5229267971254, "timestamp": "2025-12-06T09:34:17.299370+00:00", "meta": {"OBJECT_NAME": "IRIDIUM 33 DEB", "OBJECT_ID": "1997-051GB", "EPOCH": "2025-12-05T13:52:10.857216", "MEAN_MOTION": 14.95311877, "ECCENTRICITY": 0.0013161, "INCLINATION": 86.3929, "RA_OF_ASC_NODE": 15.3294, "ARG_OF_PERICENTER": 136.3567, "MEAN_ANOMALY": 23.1276, "EPHEMERIS_TYPE": 0, "CLASSIFICATION_TYPE": "U", "NORAD_CAT_ID": 34486, "ELEMENT_SET_NO": 999, "REV_AT_EPOCH": 88879, "BSTAR": 0.0036168434, "MEAN_MOTION_DOT": 0.00040118, "MEAN_MOTION_DDOT": 0}, "tle": {"line1": "1 34486U 97051GB  25339.57790344  .00040118  00000+0  36168-2 0  9997", "line2": "2 34486  86.3929  15.3294 0013161 136.3567  23.1276 14.95311877888798"}}, "geometry": {"type": "Point", "coordinates": [-151.04072920644478, -75.39358664699104]}}, {"type": "Feature", "properties": {"norad_id": 34487, "name": "IRIDIUM 33 DEB", "group": "iridium-33-debris", "lat": 24.141946824064245, "lon": 16.749415677977446, "alt_km": 760.1666210077528, "timestamp": "2025-12-06T09:34:17.299380+00:00", "meta": {"OBJECT_NAME": "IRIDIUM 33 DEB", "OBJECT_ID": "1997-051GC", "EPOCH": "2025-12-05T08:34:04.230624", "MEAN_MOTION": 14.43201608, "ECCENTRICITY": 0.00321216, "INCLINATION": 86.3441, "RA_OF_ASC_NODE": 15.5556, "ARG_OF_PERICENTER": 151.732, "MEAN_ANOMALY": 223.5238, "EPHEMERIS_TYPE": 0, "CLASSIFICATION_TYPE": "U", "NORAD_CAT_ID": 34487, "ELEMENT_SET_NO": 999, "REV_AT_EPOCH": 88142, "BSTAR": 0.00035058691, "MEAN_MOTION_DOT": 1.205e-05, "MEAN_MOTION_DDOT": 0}, "tle": {"line1": "1 34487U 97051GC  25339.35699341  .00001205  00000+0  35059-3 0  9992", "line2": "2 34487  86.3441  15.5556 0032121 151.7320 223.5238 14.43201608881426"}}, "geometry": {"type": "Point", "coordinates": [16.749415677977446, 24.141946824064245]}}, {"type": "Feature", "properties": {"norad_id": 34488, "name": "IRIDIUM 33 DEB", "group": "iridium-33-debris", "lat": -34.106835647629175, "lon": 131.44284739045438, "alt_km": 499.9797121468555, "timestamp": "2025-12-06T09:34:17.299390+00:00", "meta": {"OBJECT_NAME": "IRIDIUM 33 DEB", "OBJECT_ID": "1997-051GD", "EPOCH": "2025-12-05T15:20:16.790208", "MEAN_MOTION": 15.26946078, "ECCENTRICITY": 0.00151936, "INCLINATION": 86.3251, "RA_OF_ASC_NODE": 309.323, "ARG_OF_PERICENTER": 61.7168, "MEAN_ANOMALY": 298.561, "EPHEMERIS_TYPE": 0, "CLASSIFICATION_TYPE": "U", "NORAD_CAT_ID": 34488, "ELEMENT_SET_NO": 999, "REV_AT_EPOCH": 89131, "BSTAR": 0.0066018309, "MEAN_MOTION_DOT": 0.00179045, "MEAN_MOTION_DDOT": 0}, "tle": {"line1": "1 34488U 97051GD  25339.63908322  .00179045  00000+0  66018-2 0  9992", "line2": "2 34488  86.3251 309.3230 0015193  61.7168 298.5610 15.26946078891313"}}, "geometry": {"type": "Point", "coordinates": [131.44284739045438, -34.106835647629175]}}, {"type": "Feature", "properties": {"norad_id": 34492, "name": "IRIDIUM 33 DEB", "group": "iridium-33-debris", "lat": 26.095510639231584, "lon": 155.4613697965869, "alt_km": 839.1492159099307, "timestamp": "2025-12-06T09:34:17.299400+00:00", "meta": {"OBJECT_NAME": "IRIDIUM 33 DEB", "OBJECT_ID": "1997-051GH", "EPOCH": "2025-12-05T22:51:29.100960", "MEAN_MOTION": 14.25438879, "ECCENTRICITY": 0.01898317, "INCLINATION": 86.4721, "RA_OF_ASC_NODE": 337.3731, "ARG_OF_PERICENTER": 260.2605, "MEAN_ANOMALY": 126.3251, "EPHEMERIS_TYPE": 0, "CLASSIFICATION_TYPE": "U", "NORAD_CAT_ID": 34492, "ELEMENT_SET_NO": 999, "REV_AT_EPOCH": 84962, "BSTAR": 0.0085984506, "MEAN_MOTION_DOT": 0.00024583, "MEAN_MOTION_DDOT": 0}, "tle": {"line1": "1 34492U 97051GH  25339.95242015  .00024583  00000+0  85985-2 0  9992", "line2": "2 34492  86.4721 337.3731 0189831 260.2605 126.3251 14.25438879849620"}}, "geometry": {"type": "Point", "coordinates": [155.4613697965869, 26.095510639231584]}}, {"type": "Feature", "properties": {"norad_id": 34497, "name": "IRIDIUM 33 DEB", "group": "iridium-33-debris", "lat": -8.039053235801266, "lon": 54.583933079440634, "alt_km": 747.8000375305883, "timestamp": "2025-12-06T09:34:17.299410+00:00", "meta": {"OBJECT_NAME": "IRIDIUM 33 DEB", "OBJECT_ID": "1997-051GN", "EPOCH": "2025-12-05T05:08:17.522880", "MEAN_MOTION": 14.27419297, "ECCENTRICITY": 0.00795949, "INCLINATION": 86.2787, "RA_OF_ASC_NODE": 55.6164, "ARG_OF_PERICENTER": 4.0623, "MEAN_ANOMALY": 24.0045, "EPHEMERIS_TYPE": 0, "CLASSIFICATION_TYPE": "U", "NORAD_CAT_ID": 34497, "ELEMENT_SET_NO": 999, "REV_AT_EPOCH": 86776, "BSTAR": 0.0011650862, "MEAN_MOTION_DOT": 2.973e-05, "MEAN_MOTION_DDOT": 0}, "tle": {"line1": "1 34497U 97051GN  25339.21409170  .00002973  00000+0  11651-2 0  9991", "line2": "2 34497  86.2787  55.6164 0079594   4.0623  24.0045 14.27419297867768"}}, "geometry": {"type": "Point", "coordinates": [54.583933079440634, -8.039053235801266]}}, {"type": "Feature", "properties": {"norad_id": 34508, "name": "IRIDIUM 33 DEB", "group": "iridium-33-debris", "lat": -80.78334934639193, "lon": -51.64363610841451, "alt_km": 753.5825783961864, "timestamp": "2025-12-06T09:34:17.299420+00:00", "meta": {"OBJECT_NAME": "IRIDIUM 33 DEB", "OBJECT_ID": "1997-051GZ", "EPOCH": "2025-12-05T20:40:26.099616", "MEAN_MOTION": 14.38329921, "ECCENTRICITY": 0.00656266, "INCLINATION": 86.3708, "RA_OF_ASC_NODE": 105.5587, "ARG_OF_PERICENTER": 195.2988, "MEAN_ANOMALY": 164.6228, "EPHEMERIS_TYPE": 0, "CLASSIFICATION_TYPE": "U", "NORAD_CAT_ID": 34508, "ELEMENT_SET_NO": 999, "REV_AT_EPOCH": 87210, "BSTAR": 0.0032326883, "MEAN_MOTION_DOT": 0.00010115, "MEAN_MOTION_DDOT": 0}, "tle": {"line1": "1 34508U 97051GZ  25339.86141319  .00010115  00000+0  32327-2 0  9993", "line2": "2 34508  86.3708 105.5587 0065626 195.2988 164.6228 14.38329921872101"}}, "geometry": {"type": "Point", "coordinates": [-51.64363610841451, -80.78334934639193]}}, {"type": "Feature", "properties": {"norad_id": 34521, "name": "IRIDIUM 33 DEB", "group": "iridium-33-debris", "lat": -50.02771456844943, "lon": -142.3297307867862, "alt_km": 688.9990277618881, "timestamp": "2025-12-06T09:34:17.299430+00:00", "meta": {"OBJECT_NAME": "IRIDIUM 33 DEB", "OBJECT_ID": "1997-051HN", "EPOCH": "2025-12-05T14:28:10.515936", "MEAN_MOTION": 14.63269452, "ECCENTRICITY": 0.00010915, "INCLINATION": 86.3806, "RA_OF_ASC_NODE": 33.69, "ARG_OF_PERICENTER": 272.9891, "MEAN_ANOMALY": 87.1196, "EPHEMERIS_TYPE": 0, "CLASSIFICATION_TYPE": "U", "NORAD_CAT_ID": 34521, "ELEMENT_SET_NO": 999, "REV_AT_EPOCH": 88368, "BSTAR": 0.0017646216, "MEAN_MOTION_DOT": 9.121e-05, "MEAN_MOTION_DDOT": 0}, "tle": {"line1": "1 34521U 97051HN  25339.60289949  .00009121  00000+0  17646-2 0  9994", "line2": "2 34521  86.3806  33.6900 0001091 272.9891  87.1196 14.63269452883685"}}, "geometry": {"type": "Point", "coordinates": [-142.3297307867862, -50.02771456844943]}}, {"type": "Feature", "properties": {"norad_id": 34525, "name": "IRIDIUM 33 DEB", "group": "iridium-33-debris", "lat": 25.01486436777938, "lon": -132.145522714386, "alt_km": 745.0535721080014, "timestamp": "2025-12-06T09:34:17.299440+00:00", "meta": {"OBJECT_NAME": "IRIDIUM 33 DEB", "OBJECT_ID": "1997-051HS", "EPOCH": "2025-12-05T23:41:22.507584", "MEAN_MOTION": 14.42879627, "ECCENTRICITY": 0.00065723, "INCLINATION": 86.3736, "RA_OF_ASC_NODE": 49.7259, "ARG_OF_PERICENTER": 110.7293, "MEAN_ANOMALY": 66.6493, "EPHEMERIS_TYPE": 0, "CLASSIFICATION_TYPE": "U", "NORAD_CAT_ID": 34525, "ELEMENT_SET_NO": 999, "REV_AT_EPOCH": 87990, "BSTAR": 0.00073169424, "MEAN_MOTION_DOT": 2.463e-05, "MEAN_MOTION_DDOT": 0}, "tle": {"line1": "1 34525U 97051HS  25339.98706606  .00002463  00000+0  73169-3 0  9998", "line2": "2 34525  86.3736  49.7259 0006572 110.7293  66.6493 14.42879627879900"}}, "geometry": {"type": "Point", "coordinates": [-132.145522714386, 25.01486436777938]}}]}